{
  "links" : {
    "next" : "https://api.nasa.gov/neo/rest/v1/feed?start_date=1999-09-09&end_date=1999-09-09&detailed=true&api_key=t0TVs3DtDT2H8Oy2Zy8m2eVrNsAVKAexjcZXUckd",
    "prev" : "https://api.nasa.gov/neo/rest/v1/feed?start_date=1999-09-07&end_date=1999-09-07&detailed=true&api_key=t0TVs3DtDT2H8Oy2Zy8m2eVrNsAVKAexjcZXUckd",
    "self" : "https://api.nasa.gov/neo/rest/v1/feed?start_date=1999-09-08&end_date=1999-09-08&detailed=true&api_key=t0TVs3DtDT2H8Oy2Zy8m2eVrNsAVKAexjcZXUckd"
  },
  "element_count" : 8,
  "near_earth_objects" : {
    "1999-09-08" : [ {
      "links" : {
        "self" : "https://api.nasa.gov/neo/rest/v1/neo/3022935?api_key=t0TVs3DtDT2H8Oy2Zy8m2eVrNsAVKAexjcZXUckd"
      },
      "neo_reference_id" : "3022935",
      "name" : "(1999 RJ33)",
      "nasa_jpl_url" : "http://ssd.jpl.nasa.gov/sbdb.cgi?sstr=3022935",
      "absolute_magnitude_h" : 22.5,
      "estimated_diameter" : {
        "kilometers" : {
          "estimated_diameter_min" : 0.0840533402,
          "estimated_diameter_max" : 0.1879489824
        },
        "meters" : {
          "estimated_diameter_min" : 84.0533402073,
          "estimated_diameter_max" : 187.9489824394
        },
        "miles" : {
          "estimated_diameter_min" : 0.0522283081,
          "estimated_diameter_max" : 0.1167860472
        },
        "feet" : {
          "estimated_diameter_min" : 275.7655606856,
          "estimated_diameter_max" : 616.6305395464
        }
      },
      "is_potentially_hazardous_asteroid" : false,
      "close_approach_data" : [ {
        "close_approach_date" : "1999-09-08",
        "epoch_date_close_approach" : 936774000000,
        "relative_velocity" : {
          "kilometers_per_second" : "10.1476224999",
          "kilometers_per_hour" : "36531.440999708",
          "miles_per_hour" : "22699.2167700686"
        },
        "miss_distance" : {
          "astronomical" : "0.0338039089",
          "lunar" : "13.1497211456",
          "kilometers" : "5056993",
          "miles" : "3142269.75"
        },
        "orbiting_body" : "Earth"
      } ],
      "orbital_data" : {
        "orbit_id" : "11",
        "orbit_determination_date" : "2017-04-06 09:17:22",
        "orbit_uncertainty" : "8",
        "minimum_orbit_intersection" : ".0267091",
        "jupiter_tisserand_invariant" : "5.064",
        "epoch_osculation" : "2451435.5",
        "eccentricity" : ".1888805465581256",
        "semi_major_axis" : "1.254038711938936",
        "inclination" : "18.52423017696426",
        "ascending_node_longitude" : "343.2441040707509",
        "orbital_period" : "512.9379618486734",
        "perihelion_distance" : "1.017175194622862",
        "perihelion_argument" : "27.17205106310853",
        "aphelion_distance" : "1.49090222925501",
        "perihelion_time" : "2451455.182173911499",
        "mean_anomaly" : "346.1862776102541",
        "mean_motion" : ".7018392608387346",
        "equinox" : "J2000"
      }
    }, {
      "links" : {
        "self" : "https://api.nasa.gov/neo/rest/v1/neo/2053409?api_key=t0TVs3DtDT2H8Oy2Zy8m2eVrNsAVKAexjcZXUckd"
      },
      "neo_reference_id" : "2053409",
      "name" : "53409 (1999 LU7)",
      "nasa_jpl_url" : "http://ssd.jpl.nasa.gov/sbdb.cgi?sstr=2053409",
      "absolute_magnitude_h" : 18.7,
      "estimated_diameter" : {
        "kilometers" : {
          "estimated_diameter_min" : 0.4836764882,
          "estimated_diameter_max" : 1.0815335068
        },
        "meters" : {
          "estimated_diameter_min" : 483.6764882185,
          "estimated_diameter_max" : 1081.533506775
        },
        "miles" : {
          "estimated_diameter_min" : 0.3005425432,
          "estimated_diameter_max" : 0.6720335566
        },
        "feet" : {
          "estimated_diameter_min" : 1586.8651696069,
          "estimated_diameter_max" : 3548.3383903678
        }
      },
      "is_potentially_hazardous_asteroid" : false,
      "close_approach_data" : [ {
        "close_approach_date" : "1999-09-08",
        "epoch_date_close_approach" : 936774000000,
        "relative_velocity" : {
          "kilometers_per_second" : "14.3558925225",
          "kilometers_per_hour" : "51681.2130808898",
          "miles_per_hour" : "32112.6959835118"
        },
        "miss_distance" : {
          "astronomical" : "0.2487045732",
          "lunar" : "96.7460784912",
          "kilometers" : "37205676",
          "miles" : "23118534"
        },
        "orbiting_body" : "Earth"
      } ],
      "orbital_data" : {
        "orbit_id" : "32",
        "orbit_determination_date" : "2017-04-06 09:29:04",
        "orbit_uncertainty" : "0",
        "minimum_orbit_intersection" : ".086402",
        "jupiter_tisserand_invariant" : "3.448",
        "epoch_osculation" : "2458000.5",
        "eccentricity" : ".6279743953246445",
        "semi_major_axis" : "2.101369834646658",
        "inclination" : "10.87121351264099",
        "ascending_node_longitude" : "206.72928149",
        "orbital_period" : "1112.633590821872",
        "perihelion_distance" : ".7817633833809747",
        "perihelion_argument" : "147.7260513272305",
        "aphelion_distance" : "3.420976285912341",
        "perihelion_time" : "2458114.064477531185",
        "mean_anomaly" : "323.2554578178543",
        "mean_motion" : ".323556652405288",
        "equinox" : "J2000"
      }
    }, {
      "links" : {
        "self" : "https://api.nasa.gov/neo/rest/v1/neo/3334434?api_key=t0TVs3DtDT2H8Oy2Zy8m2eVrNsAVKAexjcZXUckd"
      },
      "neo_reference_id" : "3334434",
      "name" : "(2006 KA40)",
      "nasa_jpl_url" : "http://ssd.jpl.nasa.gov/sbdb.cgi?sstr=3334434",
      "absolute_magnitude_h" : 19.6,
      "estimated_diameter" : {
        "kilometers" : {
          "estimated_diameter_min" : 0.3195618867,
          "estimated_diameter_max" : 0.7145621017
        },
        "meters" : {
          "estimated_diameter_min" : 319.5618867213,
          "estimated_diameter_max" : 714.5621017269
        },
        "miles" : {
          "estimated_diameter_min" : 0.1985664891,
          "estimated_diameter_max" : 0.4440081677
        },
        "feet" : {
          "estimated_diameter_min" : 1048.4314204307,
          "estimated_diameter_max" : 2344.3639258298
        }
      },
      "is_potentially_hazardous_asteroid" : false,
      "close_approach_data" : [ {
        "close_approach_date" : "1999-09-08",
        "epoch_date_close_approach" : 936774000000,
        "relative_velocity" : {
          "kilometers_per_second" : "2.3189821907",
          "kilometers_per_hour" : "8348.3358864654",
          "miles_per_hour" : "5187.3312623429"
        },
        "miss_distance" : {
          "astronomical" : "0.4929445116",
          "lunar" : "191.7554168701",
          "kilometers" : "73743448",
          "miles" : "45822056"
        },
        "orbiting_body" : "Earth"
      } ],
      "orbital_data" : {
        "orbit_id" : "31",
        "orbit_determination_date" : "2017-09-28 06:48:13",
        "orbit_uncertainty" : "0",
        "minimum_orbit_intersection" : ".226806",
        "jupiter_tisserand_invariant" : "3.384",
        "epoch_osculation" : "2458000.5",
        "eccentricity" : ".4822121945307624",
        "semi_major_axis" : "2.354114219773483",
        "inclination" : "4.978178405371308",
        "ascending_node_longitude" : "232.1033872175692",
        "orbital_period" : "1319.288336114798",
        "perihelion_distance" : "1.218931635680438",
        "perihelion_argument" : "86.69576980893643",
        "aphelion_distance" : "3.489296803866528",
        "perihelion_time" : "2457962.937407874635",
        "mean_anomaly" : "10.24986941441031",
        "mean_motion" : ".2728743900368074",
        "equinox" : "J2000"
      }
    } ]
  }
}